MALLIGYONG-1            
1 58400U 23179A   24035.84373959  .00006782  00000+0  29716-3 0  9991
2 58400  97.4230 284.6397 0016353  20.3817 339.8069 15.22212164 11446
